[
  {
    "OBJECT_NAME": "COSMOS 2251 DEB",
    "OBJECT_ID": "1993-036N",
    "EPOCH": "2026-07-23T07:12:24.078816",
    "MEAN_MOTION": 15.25767226,
    "ECCENTRICITY": 0.0051362,
    "INCLINATION": 73.9997,
    "RA_OF_ASC_NODE": 66.8679,
    "ARG_OF_PERICENTER": 102.7888,
    "MEAN_ANOMALY": 257.9059,
    "EPHEMERIS_TYPE": 0,
    "CLASSIFICATION_TYPE": "U",
    "NORAD_CAT_ID": 33765,
    "ELEMENT_SET_NO": 999,
    "REV_AT_EPOCH": 92996,
    "BSTAR": 0.0018929,
    "MEAN_MOTION_DOT": 0.00050517,
    "MEAN_MOTION_DDOT": 0
  }
]
