{"epoch":1784808275,"count":9900,"objects":[{"id":"33765","name":"COSMOS 2251 DEB","type":"DEBRIS","l1":"1 33765U 93036N   26204.30027870  .00050517  00000-0  18929-2 0  9995","l2":"2 33765  73.9997  66.8679 0051362 102.7888 257.9059 15.25767226929968"}]}